[{"OBJECT_NAME":"STARLINK-34741","OBJECT_ID":"2025-167V","EPOCH":"2026-03-09T01:29:36.472416","MEAN_MOTION":15.30205441,"ECCENTRICITY":9.137e-5,"INCLINATION":53.1598,"RA_OF_ASC_NODE":29.5813,"ARG_OF_PERICENTER":122.707,"MEAN_ANOMALY":237.4019,"EPHEMERIS_TYPE":0,"CLASSIFICATION_TYPE":"U","NORAD_CAT_ID":65097,"ELEMENT_SET_NO":999,"REV_AT_EPOCH":3338,"BSTAR":0.00081964852,"MEAN_MOTION_DOT":0.00023999,"MEAN_MOTION_DDOT":0},{"OBJECT_NAME":"SL-3 R\/B","OBJECT_ID":"1982-079B","EPOCH":"2026-03-09T22:18:18.158976","MEAN_MOTION":15.24805533,"ECCENTRICITY":0.00250364,"INCLINATION":81.1481,"RA_OF_ASC_NODE":192.7939,"ARG_OF_PERICENTER":164.0597,"MEAN_ANOMALY":196.143,"EPHEMERIS_TYPE":0,"CLASSIFICATION_TYPE":"U","NORAD_CAT_ID":13403,"ELEMENT_SET_NO":999,"REV_AT_EPOCH":37773,"BSTAR":0.00032485557,"MEAN_MOTION_DOT":8.157e-5,"MEAN_MOTION_DDOT":0}]
